GSAT0225 (GALILEO 29)   
1 59598U 24079A   26193.92364229 -.00000032  00000+0  00000+0 0  9990
2 59598  55.1342 100.3610 0000576 333.1665 207.5558  1.70473595 13753
GSAT0227 (GALILEO 30)   
1 59600U 24079C   26193.22605232 -.00000031  00000+0  00000+0 0  9998
2 59600  55.1292 100.3786 0002811  67.1803 292.8601  1.70473777 13799
GSAT0232 (GALILEO 32)   
1 61182U 24167A   26194.16550859  .00000078  00000+0  00000+0 0  9992
2 61182  55.1798 220.6008 0006491 230.8741 201.3532  1.70473982 11322
GSAT0226 (GALILEO 31)   
1 61183U 24167B   26193.31376557  .00000085  00000+0  00000+0 0  9998
2 61183  55.1789 220.6314 0003219 234.7446 126.0816  1.70473923 11281
BEIDOU-3 M25            
1 61186U 24168B   26194.32238303 -.00000066  00000+0  00000+0 0  9990
2 61186  54.4484 301.3340 0003286 291.8213 128.4471  1.86229790 12275
BEIDOU-3 M27            
1 61187U 24168C   26193.44025716 -.00000066  00000+0  00000+0 0  9995
2 61187  54.4448 301.3475 0000940  49.1078 274.7757  1.86229847  9723
NAVSTAR 83 (USA 440)    
1 62339U 24242A   26194.26620829 -.00000093  00000+0  00000+0 0  9995
2 62339  54.8371 333.1245 0017816   4.0177 356.1264  2.00571836 11771
QZS-6 (MICHIBIKI-6)     
1 62876U 25023A   26194.57895459 -.00000236  00000+0  00000+0 0  9995
2 62876   0.0123 345.5701 0001785 146.8094  97.9469  1.00267367  5219
COSMOS 2584 [GLONASS-K2]
1 63130U 25042A   26189.25686521 -.00000024  00000+0  00000+0 0  9992
2 63130  65.0959  72.0857 0005748 218.1439 141.8762  2.13103813 10495
NAVSTAR 84 (USA 545)    
1 64202U 25116A   26194.01048984 -.00000059  00000+0  00000+0 0  9998
2 64202  55.2507  30.0921 0008426 339.5613  19.0492  2.00573754  8382
COSMOS 2596 [GLONASS-K1]
1 65590U 25206B   26194.33478170 -.00000064  00000+0  00000+0 0  9994
2 65590  64.6178 314.0753 0011126 307.7533 103.9433  2.13100618  6473
GSAT0233 (GALILEO 33)   
1 67160U 25302A   26192.85901142 -.00000030  00000+0  00000+0 0  9994
2 67160  54.3485 101.4284 0000844 163.0788  15.1640  1.70473765  3549
GSAT0234 (GALILEO 34)   
1 67162U 25302C   26192.55778705 -.00000030  00000+0  00000+0 0  9990
2 67162  54.3508 101.4360 0002156 317.4765 216.0018  1.70473738  3596
NAVSTAR 85 (USA 581)    
1 67588U 26017A   26194.12253330 -.00000033  00000+0  00000+0 0  9996
2 67588  55.1047  87.7143 0021566 259.9513  99.8468  2.00570504432132
NAVSTAR 86 (USA 585)    
1 68791U 26087A   26192.84604384  .00000101  00000+0  00000+0 0  9991
2 68791  54.9620 206.8126 0020500 106.4580 257.2895  2.00572252  1335
